ONEWEB-0461             
1 51649U 22012AD  24207.90559015  .00000061  00000+0  12332-3 0  9991
2 51649  87.9187 143.5091 0002129  80.3187 279.8185 13.17649153122859
ONEWEB-0463             
1 51650U 22012AE  24207.35626370  .00000108  00000+0  24412-3 0  9995
2 51650  87.9192 143.6662 0002180  79.5054 280.6323 13.17648588122565
ONEWEB-0464             
1 51651U 22012AF  24207.92119381 -.00000184  00000+0 -56339-3 0  9997
2 51651  87.8961 173.7585 0001865  73.1332 286.9999 13.10370494118794
ONEWEB-0468             
1 51652U 22012AG  24207.92784889 -.00000478  00000+0 -14066-2 0  9995
2 51652  87.8961 173.7501 0002042  81.0132 279.1226 13.10372444118779
ONEWEB-0473             
1 51653U 22012AH  24207.91290284  .00000207  00000+0  55574-3 0  9994
2 51653  87.8960 173.7563 0002123  79.1141 281.0225 13.10370286118778
ONEWEB-0474             
1 51654U 22012AJ  24207.82825013  .00000570  00000+0  15961-2 0  9997
2 51654  87.8954 173.7662 0002134  74.8493 285.2870 13.10371563118755
ONEWEB-0475             
1 51655U 22012AK  24208.20287711  .00000047  00000+0  88735-4 0  9998
2 51655  87.9194 143.4775 0002193  70.4861 289.6507 13.17649074123986
ONEWEB-0490             
1 54113U 22138A   24208.14032505  .00000176  00000+0  40658-3 0  9995
2 54113  87.9120  82.4676 0001734  75.3823 284.7502 13.19725946 86558
